[{"OBJECT_NAME":"COSMOS 2489 (RODNIK-S 8)","OBJECT_ID":"2013-076B","EPOCH":"2026-03-09T22:05:20.335200","MEAN_MOTION":12.42876225,"ECCENTRICITY":0.00203858,"INCLINATION":82.4848,"RA_OF_ASC_NODE":231.8817,"ARG_OF_PERICENTER":313.011,"MEAN_ANOMALY":46.9261,"EPHEMERIS_TYPE":0,"CLASSIFICATION_TYPE":"U","NORAD_CAT_ID":39484,"ELEMENT_SET_NO":999,"REV_AT_EPOCH":55361,"BSTAR":-0.00055683995,"MEAN_MOTION_DOT":-6.7e-7,"MEAN_MOTION_DDOT":0},{"OBJECT_NAME":"COSMOS 1720","OBJECT_ID":"1986-002E","EPOCH":"2026-03-09T23:39:37.757952","MEAN_MOTION":12.50634025,"ECCENTRICITY":0.00270941,"INCLINATION":73.9899,"RA_OF_ASC_NODE":35.9492,"ARG_OF_PERICENTER":78.0034,"MEAN_ANOMALY":339.9828,"EPHEMERIS_TYPE":0,"CLASSIFICATION_TYPE":"U","NORAD_CAT_ID":16453,"ELEMENT_SET_NO":999,"REV_AT_EPOCH":83372,"BSTAR":5.9484618e-5,"MEAN_MOTION_DOT":-7.0e-8,"MEAN_MOTION_DDOT":0}]
